{"type": "FeatureCollection", "features": [ {"type": "Feature", "properties": {"norad_id": 34375, "name": "IRIDIUM 33 DEB", "group": "iridium-33-debris", "lat": -48.68324876495507, "lon": 175.3868737220151, "alt_km": 903.7855592620181, "timestamp": "2025-12-20T18:51:32.098086+00:00", "meta": {"OBJECT_NAME": "IRIDIUM 33 DEB", "OBJECT_ID": "1997-051FT", "EPOCH": "2025-12-20T12:24:40.051872", "MEAN_MOTION": 14.18005586, "ECCENTRICITY": 0.01036912, "INCLINATION": 86.4321, "RA_OF_ASC_NODE": 179.5653, "ARG_OF_PERICENTER": 102.408, "MEAN_ANOMALY": 278.8624, "EPHEMERIS_TYPE": 0, "CLASSIFICATION_TYPE": "U", "NORAD_CAT_ID": 34375, "ELEMENT_SET_NO": 999, "REV_AT_EPOCH": 86822, "BSTAR": 0.00031260448, "MEAN_MOTION_DOT": 6.95e-06, "MEAN_MOTION_DDOT": 0}, "tle": {"line1": "1 34375U 97051FT  25354.51713023  .00000695  00000+0  31260-3 0  9999", "line2": "2 34375  86.4321 179.5653 0103691 102.4080 278.8624 14.18005586868220"}}, "geometry": {"type": "Point", "coordinates": [175.3868737220151, -48.68324876495507]}}, {"type": "Feature", "properties": {"norad_id": 34376, "name": "IRIDIUM 33 DEB", "group": "iridium-33-debris", "lat": 4.765802888371469, "lon": -177.38705283604824, "alt_km": 670.7705301532133, "timestamp": "2025-12-20T18:51:32.098097+00:00", "meta": {"OBJECT_NAME": "IRIDIUM 33 DEB", "OBJECT_ID": "1997-051FU", "EPOCH": "2025-12-20T11:29:41.973792", "MEAN_MOTION": 14.6266394, "ECCENTRICITY": 0.00280656, "INCLINATION": 86.2976, "RA_OF_ASC_NODE": 3.0602, "ARG_OF_PERICENTER": 141.121, "MEAN_ANOMALY": 219.2028, "EPHEMERIS_TYPE": 0, "CLASSIFICATION_TYPE": "U", "NORAD_CAT_ID": 34376, "ELEMENT_SET_NO": 999, "REV_AT_EPOCH": 88120, "BSTAR": 0.00090518221, "MEAN_MOTION_DOT": 4.652e-05, "MEAN_MOTION_DDOT": 0}, "tle": {"line1": "1 34376U 97051FU  25354.47895803  .00004652  00000+0  90518-3 0  9990", "line2": "2 34376  86.2976   3.0602 0028065 141.1210 219.2028 14.62663940881209"}}, "geometry": {"type": "Point", "coordinates": [-177.38705283604824, 4.765802888371469]}}, {"type": "Feature", "properties": {"norad_id": 34486, "name": "IRIDIUM 33 DEB", "group": "iridium-33-debris", "lat": -82.81259517045102, "lon": -21.705107656181408, "alt_km": 595.9281396257857, "timestamp": "2025-12-20T18:51:32.098107+00:00", "meta": {"OBJECT_NAME": "IRIDIUM 33 DEB", "OBJECT_ID": "1997-051GB", "EPOCH": "2025-12-20T00:04:17.796000", "MEAN_MOTION": 14.96101928, "ECCENTRICITY": 0.0013908, "INCLINATION": 86.3929, "RA_OF_ASC_NODE": 8.6716, "ARG_OF_PERICENTER": 91.5412, "MEAN_ANOMALY": 291.3403, "EPHEMERIS_TYPE": 0, "CLASSIFICATION_TYPE": "U", "NORAD_CAT_ID": 34486, "ELEMENT_SET_NO": 999, "REV_AT_EPOCH": 89095, "BSTAR": 0.0013547, "MEAN_MOTION_DOT": 0.00015301, "MEAN_MOTION_DDOT": 0}, "tle": {"line1": "1 34486U 97051GB  25354.00298375  .00015301  00000+0  13547-2 0  9991", "line2": "2 34486  86.3929   8.6716 0013908  91.5412 291.3403 14.96101928890959"}}, "geometry": {"type": "Point", "coordinates": [-21.705107656181408, -82.81259517045102]}}, {"type": "Feature", "properties": {"norad_id": 34487, "name": "IRIDIUM 33 DEB", "group": "iridium-33-debris", "lat": -26.104688459312534, "lon": -169.29126824172332, "alt_km": 758.7699701492975, "timestamp": "2025-12-20T18:51:32.098117+00:00", "meta": {"OBJECT_NAME": "IRIDIUM 33 DEB", "OBJECT_ID": "1997-051GC", "EPOCH": "2025-12-20T11:57:25.083072", "MEAN_MOTION": 14.43225278, "ECCENTRICITY": 0.0033198, "INCLINATION": 86.343, "RA_OF_ASC_NODE": 9.0367, "ARG_OF_PERICENTER": 104.2431, "MEAN_ANOMALY": 48.2266, "EPHEMERIS_TYPE": 0, "CLASSIFICATION_TYPE": "U", "NORAD_CAT_ID": 34487, "ELEMENT_SET_NO": 999, "REV_AT_EPOCH": 88360, "BSTAR": 0.00013260723, "MEAN_MOTION_DOT": 4.69e-06, "MEAN_MOTION_DDOT": 0}, "tle": {"line1": "1 34487U 97051GC  25354.49820698  .00000469  00000+0  13261-3 0  9997", "line2": "2 34487  86.3430   9.0367 0033198 104.2431  48.2266 14.43225278883607"}}, "geometry": {"type": "Point", "coordinates": [-169.29126824172332, -26.104688459312534]}}, {"type": "Feature", "properties": {"norad_id": 34488, "name": "IRIDIUM 33 DEB", "group": "iridium-33-debris", "lat": 4.2669475691439125, "lon": 121.54642773512553, "alt_km": 480.4664438096279, "timestamp": "2025-12-20T18:51:32.098128+00:00", "meta": {"OBJECT_NAME": "IRIDIUM 33 DEB", "OBJECT_ID": "1997-051GD", "EPOCH": "2025-12-20T00:50:30.763392", "MEAN_MOTION": 15.31136537, "ECCENTRICITY": 0.00111988, "INCLINATION": 86.3246, "RA_OF_ASC_NODE": 302.194, "ARG_OF_PERICENTER": 39.0214, "MEAN_ANOMALY": 321.1841, "EPHEMERIS_TYPE": 0, "CLASSIFICATION_TYPE": "U", "NORAD_CAT_ID": 34488, "ELEMENT_SET_NO": 999, "REV_AT_EPOCH": 89351, "BSTAR": 0.0029700032, "MEAN_MOTION_DOT": 0.00090383, "MEAN_MOTION_DDOT": 0}, "tle": {"line1": "1 34488U 97051GD  25354.03507828  .00090383  00000+0  29700-2 0  9993", "line2": "2 34488  86.3246 302.1940 0011198  39.0214 321.1841 15.31136537893517"}}, "geometry": {"type": "Point", "coordinates": [121.54642773512553, 4.2669475691439125]}}, {"type": "Feature", "properties": {"norad_id": 34492, "name": "IRIDIUM 33 DEB", "group": "iridium-33-debris", "lat": 30.014590454348028, "lon": 149.33263800468873, "alt_km": 739.0325757108494, "timestamp": "2025-12-20T18:51:32.098139+00:00", "meta": {"OBJECT_NAME": "IRIDIUM 33 DEB", "OBJECT_ID": "1997-051GH", "EPOCH": "2025-12-19T10:45:18.347328", "MEAN_MOTION": 14.25846982, "ECCENTRICITY": 0.0188646, "INCLINATION": 86.4707, "RA_OF_ASC_NODE": 331.9164, "ARG_OF_PERICENTER": 216.3823, "MEAN_ANOMALY": 273.3437, "EPHEMERIS_TYPE": 0, "CLASSIFICATION_TYPE": "U", "NORAD_CAT_ID": 34492, "ELEMENT_SET_NO": 999, "REV_AT_EPOCH": 85154, "BSTAR": 0.0022012, "MEAN_MOTION_DOT": 6.332e-05, "MEAN_MOTION_DDOT": 0}, "tle": {"line1": "1 34492U 97051GH  25353.44812902  .00006332  00000+0  22012-2 0  9994", "line2": "2 34492  86.4707 331.9164 0188646 216.3823 273.3437 14.25846982851542"}}, "geometry": {"type": "Point", "coordinates": [149.33263800468873, 30.014590454348028]}}, {"type": "Feature", "properties": {"norad_id": 34497, "name": "IRIDIUM 33 DEB", "group": "iridium-33-debris", "lat": 78.2248033483586, "lon": 67.1631743839625, "alt_km": 825.3628553927529, "timestamp": "2025-12-20T18:51:32.098149+00:00", "meta": {"OBJECT_NAME": "IRIDIUM 33 DEB", "OBJECT_ID": "1997-051GN", "EPOCH": "2025-12-19T10:35:53.025216", "MEAN_MOTION": 14.2747197, "ECCENTRICITY": 0.0078309, "INCLINATION": 86.2774, "RA_OF_ASC_NODE": 49.5385, "ARG_OF_PERICENTER": 317.619, "MEAN_ANOMALY": 57.0969, "EPHEMERIS_TYPE": 0, "CLASSIFICATION_TYPE": "U", "NORAD_CAT_ID": 34497, "ELEMENT_SET_NO": 999, "REV_AT_EPOCH": 86979, "BSTAR": 0.00044435, "MEAN_MOTION_DOT": 1.145e-05, "MEAN_MOTION_DDOT": 0}, "tle": {"line1": "1 34497U 97051GN  25353.44158594  .00001145  00000+0  44435-3 0  9990", "line2": "2 34497  86.2774  49.5385 0078309 317.6190  57.0969 14.27471970869798"}}, "geometry": {"type": "Point", "coordinates": [67.1631743839625, 78.2248033483586]}}, {"type": "Feature", "properties": {"norad_id": 34508, "name": "IRIDIUM 33 DEB", "group": "iridium-33-debris", "lat": -14.747070271820451, "lon": -79.81028736716726, "alt_km": 736.0250312315975, "timestamp": "2025-12-20T18:51:32.098159+00:00", "meta": {"OBJECT_NAME": "IRIDIUM 33 DEB", "OBJECT_ID": "1997-051GZ", "EPOCH": "2025-12-20T06:16:29.290368", "MEAN_MOTION": 14.38479962, "ECCENTRICITY": 0.006658, "INCLINATION": 86.371, "RA_OF_ASC_NODE": 99.4548, "ARG_OF_PERICENTER": 148.8, "MEAN_ANOMALY": 211.7177, "EPHEMERIS_TYPE": 0, "CLASSIFICATION_TYPE": "U", "NORAD_CAT_ID": 34508, "ELEMENT_SET_NO": 999, "REV_AT_EPOCH": 87417, "BSTAR": 0.00083303, "MEAN_MOTION_DOT": 2.629e-05, "MEAN_MOTION_DDOT": 0}, "tle": {"line1": "1 34508U 97051GZ  25354.26145012  .00002629  00000+0  83303-3 0  9990", "line2": "2 34508  86.3710  99.4548 0066580 148.8000 211.7177 14.38479962874178"}}, "geometry": {"type": "Point", "coordinates": [-79.81028736716726, -14.747070271820451]}}, {"type": "Feature", "properties": {"norad_id": 34521, "name": "IRIDIUM 33 DEB", "group": "iridium-33-debris", "lat": 13.10468313261046, "lon": 27.850198536960484, "alt_km": 685.1013387299081, "timestamp": "2025-12-20T18:51:32.098169+00:00", "meta": {"OBJECT_NAME": "IRIDIUM 33 DEB", "OBJECT_ID": "1997-051HN", "EPOCH": "2025-12-20T13:52:33.220992", "MEAN_MOTION": 14.63425265, "ECCENTRICITY": 0.00025181, "INCLINATION": 86.3788, "RA_OF_ASC_NODE": 27.0969, "ARG_OF_PERICENTER": 181.0734, "MEAN_ANOMALY": 179.0473, "EPHEMERIS_TYPE": 0, "CLASSIFICATION_TYPE": "U", "NORAD_CAT_ID": 34521, "ELEMENT_SET_NO": 999, "REV_AT_EPOCH": 88587, "BSTAR": 0.0005204938, "MEAN_MOTION_DOT": 2.713e-05, "MEAN_MOTION_DDOT": 0}, "tle": {"line1": "1 34521U 97051HN  25354.57816228  .00002713  00000+0  52049-3 0  9990", "line2": "2 34521  86.3788  27.0969 0002518 181.0734 179.0473 14.63425265885875"}}, "geometry": {"type": "Point", "coordinates": [27.850198536960484, 13.10468313261046]}}, {"type": "Feature", "properties": {"norad_id": 34525, "name": "IRIDIUM 33 DEB", "group": "iridium-33-debris", "lat": -40.279573289682375, "lon": 40.327325876126785, "alt_km": 757.5201615950737, "timestamp": "2025-12-20T18:51:32.098179+00:00", "meta": {"OBJECT_NAME": "IRIDIUM 33 DEB", "OBJECT_ID": "1997-051HS", "EPOCH": "2025-12-20T04:21:41.244768", "MEAN_MOTION": 14.42921764, "ECCENTRICITY": 0.00064705, "INCLINATION": 86.3721, "RA_OF_ASC_NODE": 43.6672, "ARG_OF_PERICENTER": 78.1419, "MEAN_ANOMALY": 345.8375, "EPHEMERIS_TYPE": 0, "CLASSIFICATION_TYPE": "U", "NORAD_CAT_ID": 34525, "ELEMENT_SET_NO": 999, "REV_AT_EPOCH": 88195, "BSTAR": 0.00024009823, "MEAN_MOTION_DOT": 8.22e-06, "MEAN_MOTION_DDOT": 0}, "tle": {"line1": "1 34525U 97051HS  25354.18172737  .00000822  00000+0  24010-3 0  9997", "line2": "2 34525  86.3721  43.6672 0006470  78.1419 345.8375 14.42921764881959"}}, "geometry": {"type": "Point", "coordinates": [40.327325876126785, -40.279573289682375]}}]}